COSMOS 2588             
1 64095U 25109A   26068.81179522  .00009169  00000+0  32611-3 0  9998
2 64095  72.9704  73.5401 0005019 308.6780  51.3966 15.29122656 44425
STARLINK-35301          
1 65843U 25221W   26068.48898276  .00031525  00000+0  10717-2 0  9995
2 65843  53.1586  89.2053 0001335  75.1291 284.9857 15.30210089 24705
